start=new Date('2022-04-27T00:00:00.000Z').valueOf();
sats=[{"EPOCH":"2022-04-26T14:51:23.769504","SEMIMAJOR_AXIS":"6925.346","DECAY_DATE":null,"TIME_SYSTEM":"UTC","MEAN_MOTION_DOT":"0.00000165","EPHEMERIS_TYPE":"0","MEAN_MOTION_DDOT":"0.0000000000000","OBJECT_NAME":"STARLINK-1061","OBJECT_TYPE":"PAYLOAD","MEAN_MOTION":"15.06400673","REV_AT_EPOCH":"13521","TLE_LINE2":"2 44766  53.0563  90.1379 0001502  59.1088 301.0048 15.06400673135219","NORAD_CAT_ID":"44766","TLE_LINE1":"1 44766U 19074BF  22116.61902511  .00000165  00000-0  29989-4 0  9998","PERIOD":"95.592","ARG_OF_PERICENTER":"59.1088","MEAN_ELEMENT_THEORY":"SGP4","GP_ID":"202107944","REF_FRAME":"TEME","PERIAPSIS":"546.171","COUNTRY_CODE":"US","CLASSIFICATION_TYPE":"U","RCS_SIZE":"LARGE","RA_OF_ASC_NODE":"90.1379","ELEMENT_SET_NO":"999","OBJECT_ID":"2019-074BF","LAUNCH_DATE":"2019-11-11","MEAN_ANOMALY":"301.0048","ECCENTRICITY":"0.00015020","APOAPSIS":"548.252","FILE":"3417474","BSTAR":"0.00002998900000","INCLINATION":"53.0563","CENTER_NAME":"EARTH","SITE":"AFETR"},{"MEAN_MOTION":"15.06400701","REV_AT_EPOCH":"13518","TLE_LINE2":"2 44767  53.0558  91.0531 0002120  46.2805 313.8359 15.06400701135189","OBJECT_NAME":"STARLINK-1062","OBJECT_TYPE":"PAYLOAD","GP_ID":"202072281","MEAN_ELEMENT_THEORY":"SGP4","NORAD_CAT_ID":"44767","TLE_LINE1":"1 44767U 19074BG  22116.41261117  .00000077  00000-0  24054-4 0  9997","PERIOD":"95.592","ARG_OF_PERICENTER":"46.2805","SEMIMAJOR_AXIS":"6925.346","DECAY_DATE":null,"TIME_SYSTEM":"UTC","EPOCH":"2022-04-26T09:54:09.605088","MEAN_MOTION_DDOT":"0.0000000000000","EPHEMERIS_TYPE":"0","MEAN_MOTION_DOT":"0.00000077","FILE":"3417035","APOAPSIS":"548.680","BSTAR":"0.00002405400000","INCLINATION":"53.0558","OBJECT_ID":"2019-074BG","LAUNCH_DATE":"2019-11-11","MEAN_ANOMALY":"313.8359","ECCENTRICITY":"0.00021200","SITE":"AFETR","CENTER_NAME":"EARTH","PERIAPSIS":"545.743","COUNTRY_CODE":"US","RCS_SIZE":"LARGE","CLASSIFICATION_TYPE":"U","REF_FRAME":"TEME","RA_OF_ASC_NODE":"91.0531","ELEMENT_SET_NO":"999"},{"DECAY_DATE":null,"SEMIMAJOR_AXIS":"6925.360","TIME_SYSTEM":"UTC","EPOCH":"2022-04-26T15:12:37.632960","MEAN_MOTION_DDOT":"0.0000000000000","EPHEMERIS_TYPE":"0","MEAN_MOTION_DOT":"-0.00000209","REV_AT_EPOCH":"13522","MEAN_MOTION":"15.06396325","TLE_LINE2":"2 44768  53.0534  90.0605 0001791  48.3931 311.7212 15.06396325135227","OBJECT_NAME":"STARLINK-1063","OBJECT_TYPE":"PAYLOAD","GP_ID":"202108445","MEAN_ELEMENT_THEORY":"SGP4","PERIOD":"95.592","ARG_OF_PERICENTER":"48.3931","TLE_LINE1":"1 44768U 19074BH  22116.63376890 -.00000209  00000-0  48630-5 0  9992","NORAD_CAT_ID":"44768","RCS_SIZE":"LARGE","CLASSIFICATION_TYPE":"U","COUNTRY_CODE":"US","PERIAPSIS":"545.984","REF_FRAME":"TEME","RA_OF_ASC_NODE":"90.0605","ELEMENT_SET_NO":"999","FILE":"3417474","APOAPSIS":"548.465","BSTAR":"0.00000486300000","INCLINATION":"53.0534","OBJECT_ID":"2019-074BH","MEAN_ANOMALY":"311.7212","ECCENTRICITY":"0.00017910","LAUNCH_DATE":"2019-11-11","SITE":"AFETR","CENTER_NAME":"EARTH"},{"OBJECT_NAME":"STARLINK-1065","OBJECT_TYPE":"PAYLOAD","REV_AT_EPOCH":"13534","MEAN_MOTION":"15.13483657","TLE_LINE2":"2 44770  53.0009  78.2774 0001815  67.7654 292.3529 15.13483657135347","ARG_OF_PERICENTER":"67.7654","PERIOD":"95.145","TLE_LINE1":"1 44770U 19074BK  22116.59845039  .00023124  00000-0  12898-2 0  9990","NORAD_CAT_ID":"44770","MEAN_ELEMENT_THEORY":"SGP4","GP_ID":"202108697","EPOCH":"2022-04-26T14:21:46.113696","DECAY_DATE":null,"SEMIMAJOR_AXIS":"6903.723","TIME_SYSTEM":"UTC","MEAN_MOTION_DOT":"0.00023124","MEAN_MOTION_DDOT":"0.0000000000000","EPHEMERIS_TYPE":"0","OBJECT_ID":"2019-074BK","ECCENTRICITY":"0.00018150","MEAN_ANOMALY":"292.3529","LAUNCH_DATE":"2019-11-11","FILE":"3417474","APOAPSIS":"526.841","BSTAR":"0.00128980000000","INCLINATION":"53.0009","CENTER_NAME":"EARTH","SITE":"AFETR","REF_FRAME":"TEME","CLASSIFICATION_TYPE":"U","RCS_SIZE":"LARGE","PERIAPSIS":"524.335","COUNTRY_CODE":"US","RA_OF_ASC_NODE":"78.2774","ELEMENT_SET_NO":"999"},{"RA_OF_ASC_NODE":"90.1166","ELEMENT_SET_NO":"999","COUNTRY_CODE":"US","PERIAPSIS":"545.668","CLASSIFICATION_TYPE":"U","RCS_SIZE":"LARGE","REF_FRAME":"TEME","SITE":"AFETR","CENTER_NAME":"EARTH","APOAPSIS":"548.804","FILE":"3417474","INCLINATION":"53.0548","BSTAR":"0.00001703000000","OBJECT_ID":"2019-074BL","LAUNCH_DATE":"2019-11-11","ECCENTRICITY":"0.00022640","MEAN_ANOMALY":"323.9626","EPHEMERIS_TYPE":"0","MEAN_MOTION_DDOT":"0.0000000000000","MEAN_MOTION_DOT":"-0.00000028","SEMIMAJOR_AXIS":"6925.371","DECAY_DATE":null,"TIME_SYSTEM":"UTC","EPOCH":"2022-04-26T14:56:42.445536","MEAN_ELEMENT_THEORY":"SGP4","GP_ID":"202107444","TLE_LINE1":"1 44771U 19074BL  22116.62271349 -.00000028  00000-0  17030-4 0  9996","NORAD_CAT_ID":"44771","PERIOD":"95.593","ARG_OF_PERICENTER":"36.1516","MEAN_MOTION":"15.06392680","REV_AT_EPOCH":"13521","TLE_LINE2":"2 44771  53.0548  90.1166 0002264  36.1516 323.9626 15.06392680135212","OBJECT_NAME":"STARLINK-1067","OBJECT_TYPE":"PAYLOAD"},{"ECCENTRICITY":"0.00017020","MEAN_ANOMALY":"309.0665","LAUNCH_DATE":"2019-11-11","OBJECT_ID":"2019-074BM","INCLINATION":"53.0565","BSTAR":"-0.00004057900000","FILE":"3417035","APOAPSIS":"548.411","CENTER_NAME":"EARTH","SITE":"AFETR","REF_FRAME":"TEME","RCS_SIZE":"LARGE","CLASSIFICATION_TYPE":"U","COUNTRY_CODE":"US","PERIAPSIS":"546.053","ELEMENT_SET_NO":"999","RA_OF_ASC_NODE":"71.6628","OBJECT_TYPE":"PAYLOAD","OBJECT_NAME":"STARLINK-1068","TLE_LINE2":"2 44772  53.0565  71.6628 0001702  51.0475 309.0665 15.06393934135430","REV_AT_EPOCH":"13543","MEAN_MOTION":"15.06393934","ARG_OF_PERICENTER":"51.0475","PERIOD":"95.593","NORAD_CAT_ID":"44772","TLE_LINE1":"1 44772U 19074BM  22116.28176550 -.00000886  00000-0 -40579-4 0  9994","GP_ID":"202072782","MEAN_ELEMENT_THEORY":"SGP4","EPOCH":"2022-04-26T06:45:44.539200","TIME_SYSTEM":"UTC","DECAY_DATE":null,"SEMIMAJOR_AXIS":"6925.367","MEAN_MOTION_DOT":"-0.00000886","MEAN_MOTION_DDOT":"0.0000000000000","EPHEMERIS_TYPE":"0"},{"RA_OF_ASC_NODE":"209.7854","ELEMENT_SET_NO":"999","RCS_SIZE":"LARGE","CLASSIFICATION_TYPE":"U","PERIAPSIS":"545.969","COUNTRY_CODE":"US","REF_FRAME":"TEME","SITE":"AFETR","CENTER_NAME":"EARTH","APOAPSIS":"548.463","FILE":"3417474","INCLINATION":"53.0536","BSTAR":"0.00014070000000","OBJECT_ID":"2020-001A","MEAN_ANOMALY":"311.1656","ECCENTRICITY":"0.00018010","LAUNCH_DATE":"2020-01-07","EPHEMERIS_TYPE":"0","MEAN_MOTION_DDOT":"0.0000000000000","MEAN_MOTION_DOT":"0.00001815","DECAY_DATE":null,"SEMIMAJOR_AXIS":"6925.351","TIME_SYSTEM":"UTC","EPOCH":"2022-04-26T16:42:52.094592","MEAN_ELEMENT_THEORY":"SGP4","GP_ID":"202107705","PERIOD":"95.592","ARG_OF_PERICENTER":"48.9488","NORAD_CAT_ID":"44914","TLE_LINE1":"1 44914U 20001A   22116.69643628  .00001815  00000-0  14070-3 0  9991","REV_AT_EPOCH":"12687","MEAN_MOTION":"15.06399237","TLE_LINE2":"2 44914  53.0536 209.7854 0001801  48.9488 311.1656 15.06399237126874","OBJECT_NAME":"STARLINK-1073","OBJECT_TYPE":"PAYLOAD"},{"ELEMENT_SET_NO":"999","RA_OF_ASC_NODE":"210.5378","PERIAPSIS":"546.142","COUNTRY_CODE":"US","RCS_SIZE":"LARGE","CLASSIFICATION_TYPE":"U","REF_FRAME":"TEME","SITE":"AFETR","CENTER_NAME":"EARTH","INCLINATION":"53.0542","BSTAR":"0.00003944900000","FILE":"3417035","APOAPSIS":"548.301","LAUNCH_DATE":"2020-01-07","MEAN_ANOMALY":"290.0346","ECCENTRICITY":"0.00015590","OBJECT_ID":"2020-001B","MEAN_MOTION_DDOT":"0.0000000000000","EPHEMERIS_TYPE":"0","MEAN_MOTION_DOT":"0.00000306","TIME_SYSTEM":"UTC","SEMIMAJOR_AXIS":"6925.356","DECAY_DATE":null,"EPOCH":"2022-04-26T12:38:42.836352","MEAN_ELEMENT_THEORY":"SGP4","GP_ID":"202073047","NORAD_CAT_ID":"44915","TLE_LINE1":"1 44915U 20001B   22116.52688468  .00000306  00000-0  39449-4 0  9997","ARG_OF_PERICENTER":"70.0811","PERIOD":"95.592","TLE_LINE2":"2 44915  53.0542 210.5378 0001559  70.0811 290.0346 15.06397444126856","MEAN_MOTION":"15.06397444","REV_AT_EPOCH":"12685","OBJECT_TYPE":"PAYLOAD","OBJECT_NAME":"STARLINK-1084"},{"REF_FRAME":"TEME","COUNTRY_CODE":"US","PERIAPSIS":"545.901","RCS_SIZE":"LARGE","CLASSIFICATION_TYPE":"U","ELEMENT_SET_NO":"999","RA_OF_ASC_NODE":"209.6394","LAUNCH_DATE":"2020-01-07","ECCENTRICITY":"0.00018400","MEAN_ANOMALY":"308.8734","OBJECT_ID":"2020-001D","INCLINATION":"53.0531","BSTAR":"0.00069555000000","APOAPSIS":"548.449","FILE":"3417474","CENTER_NAME":"EARTH","SITE":"AFETR","EPOCH":"2022-04-26T17:30:38.811168","TIME_SYSTEM":"UTC","SEMIMAJOR_AXIS":"6925.310","DECAY_DATE":null,"MEAN_MOTION_DOT":"0.00010097","MEAN_MOTION_DDOT":"0.0000000000000","EPHEMERIS_TYPE":"0","OBJECT_TYPE":"PAYLOAD","OBJECT_NAME":"STARLINK-1098","TLE_LINE2":"2 44917  53.0531 209.6394 0001840  51.2419 308.8734 15.06412545126883","MEAN_MOTION":"15.06412545","REV_AT_EPOCH":"12688","NORAD_CAT_ID":"44917","TLE_LINE1":"1 44917U 20001D   22116.72961587  .00010097  00000-0  69555-3 0  9995","ARG_OF_PERICENTER":"51.2419","PERIOD":"95.591","MEAN_ELEMENT_THEORY":"SGP4","GP_ID":"202109212"},{"RA_OF_ASC_NODE":"209.8872","ELEMENT_SET_NO":"999","REF_FRAME":"TEME","PERIAPSIS":"546.165","COUNTRY_CODE":"US","CLASSIFICATION_TYPE":"U","RCS_SIZE":"LARGE","CENTER_NAME":"EARTH","SITE":"AFETR","OBJECT_ID":"2020-001E","LAUNCH_DATE":"2020-01-07","ECCENTRICITY":"0.00015120","MEAN_ANOMALY":"310.3491","FILE":"3417474","APOAPSIS":"548.259","BSTAR":"0.00064313000000","INCLINATION":"53.0524","MEAN_MOTION_DOT":"0.00009311","MEAN_MOTION_DDOT":"0.0000000000000","EPHEMERIS_TYPE":"0","EPOCH":"2022-04-26T16:11:01.517568","SEMIMAJOR_AXIS":"6925.347","DECAY_DATE":null,"TIME_SYSTEM":"UTC","NORAD_CAT_ID":"44918","TLE_LINE1":"1 44918U 20001E   22116.67432312  .00009311  00000-0  64313-3 0  9993","PERIOD":"95.592","ARG_OF_PERICENTER":"49.7630","GP_ID":"202107959","MEAN_ELEMENT_THEORY":"SGP4","OBJECT_NAME":"STARLINK-1099","OBJECT_TYPE":"PAYLOAD","MEAN_MOTION":"15.06400593","REV_AT_EPOCH":"12761","TLE_LINE2":"2 44918  53.0524 209.8872 0001512  49.7630 310.3491 15.06400593127612"}];
